OBJECT_NAME,OBJECT_ID,EPOCH,MEAN_MOTION,ECCENTRICITY,INCLINATION,RA_OF_ASC_NODE,ARG_OF_PERICENTER,MEAN_ANOMALY,EPHEMERIS_TYPE,CLASSIFICATION_TYPE,NORAD_CAT_ID,ELEMENT_SET_NO,REV_AT_EPOCH,BSTAR,MEAN_MOTION_DOT,MEAN_MOTION_DDOT
LEMUR-1,2014-033AL,2026-06-09T03:24:34.079040,14.85214027,.00497628,97.7869,310.1271,104.3033,256.3715,0,U,40044,999,64427,.23037784E-3,.1964E-4,0
LEMUR-2-GREENBERG,2017-042N,2026-06-09T05:52:49.938816,15.31083199,.00093029,97.3822,340.9084,41.4420,318.7526,0,U,42837,999,48717,.4984563E-3,.14923E-3,0
LEMUR-2-ANDIS,2017-042P,2026-06-09T00:45:21.047040,15.34518720,.00088439,97.3684,340.8524,41.5580,318.6334,0,U,42838,999,48720,.51382561E-3,.17141E-3,0
LEMUR-2-MONSON,2017-042Q,2026-06-09T00:57:50.205024,15.27795735,.00069849,97.4082,340.6891,34.3598,325.8092,0,U,42839,999,48692,.44509746E-3,.12024E-3,0
LEMUR-2-FURIAUS,2017-042R,2026-06-09T07:09:57.977280,15.29991812,.0008523,97.3773,338.9352,93.3596,266.8619,0,U,42840,999,48700,.55336106E-3,.16023E-3,0
LEMUR-2-PETERG,2017-042S,2026-06-09T06:31:02.549856,15.33577952,.00038878,97.3994,345.2919,26.5249,333.6192,0,U,42841,999,48722,.61805673E-3,.20017E-3,0
LEMUR-2-DEMBITZ,2017-042T,2026-06-09T06:04:48.385920,15.30052130,.00073865,97.3827,341.9075,54.4394,305.7534,0,U,42842,999,48713,.48664687E-3,.14101E-3,0
LEMUR-2-ZACHARY,2017-042W,2026-06-09T05:58:31.849536,15.49576153,.00034589,97.3612,351.7212,61.1687,298.9911,0,U,42845,999,48797,.75258087E-3,.41625E-3,0
LEMUR-2-AMANDA-SVANTE,2021-034B,2026-06-09T04:53:43.625760,15.33817792,.00013459,97.5760,238.2823,239.8719,120.2390,0,U,48269,999,27983,.87221381E-3,.2852E-3,0
LEMUR-2-SPECIAL-K,2021-034F,2026-06-09T05:06:03.150144,15.62244163,.00033351,97.5650,246.5066,231.9429,128.1528,0,U,48273,999,28044,.13900752E-2,.123928E-2,0
LEMUR-2-EMBRIONOVIS,2023-084AQ,2026-06-09T03:08:58.583040,15.37347804,.00082823,97.6279,304.0237,351.6422,8.4682,0,U,56970,999,16644,.32574728E-3,.11854E-3,0
LEMUR-2-DEVERILL-M-T,2023-100F,2026-06-09T01:05:43.591488,15.39349686,.00070737,99.4480,196.4556,75.5560,284.6463,0,U,57391,999,15999,.5730515E-3,.22326E-3,0
LEMUR-2-BASS,2023-174D,2026-06-09T05:36:05.661504,15.42830026,.00071458,97.3844,244.8364,188.2999,171.8132,0,U,58259,999,14413,.35197842E-3,.15361E-3,0
LEMUR-2-JK0903EM1407,2023-174CJ,2026-06-09T05:03:18.359424,15.51269157,.0005943,97.3912,250.4606,141.7829,218.3846,0,U,58336,999,14449,.41303421E-3,.24167E-3,0
LEMUR-2-MJR092620,2023-174CN,2026-06-09T04:35:03.971616,15.44580168,.00070562,97.3967,250.0751,140.9810,219.1949,0,U,58340,999,14441,.3741519E-3,.17332E-3,0
LEMUR-2-NIMBUS2000,2024-022A,2026-06-09T02:03:42.963552,15.39734893,.0010017,97.4121,9.9873,140.7693,219.4281,0,U,58899,999,13102,.365684E-3,.14413E-3,0
LEMUR-2-VALHALLA,2024-022B,2026-06-09T01:55:52.115520,15.39424233,.0010584,97.4119,9.9767,137.0301,223.1774,0,U,58900,999,13102,.35011948E-3,.13657E-3,0
LEMUR-2-OBA-NI-JESU,2024-022D,2026-06-09T03:08:56.215680,16.11545402,.00047072,97.3705,24.7846,203.5423,156.5647,0,U,58902,999,13203,.12360377E-2,.1248404E-1,.10415972E-2
LEMUR-2-CAEL,2024-022E,2026-06-09T02:19:48.823104,15.40708494,.00091551,97.4105,10.9151,121.2306,238.9839,0,U,58903,999,13109,.3581515E-3,.14571E-3,0
LEMUR-2-JOHNNYTRUONG,2024-043BA,2026-06-08T08:42:43.729632,15.59808527,.00045314,97.5374,310.5249,204.0195,156.0851,0,U,59146,999,12666,.40388396E-3,.32364E-3,0
LEMUR-2-TOMATOKECHUP,2024-149D,2026-06-09T05:23:05.199936,15.35864570,.00006509,97.3795,242.2520,197.2873,162.8349,0,U,60471,999,10094,.27336777E-3,.9461E-4,0
LEMUR-2-STELLA,2024-149BT,2026-06-09T04:55:12.854496,15.11635538,.00018564,97.6731,242.6264,100.1883,259.9556,0,U,60533,999,9929,.53557476E-3,.9042E-4,0
LEMUR-2-MARHISYAM,2024-149BW,2026-06-09T04:22:44.152608,15.11094587,.00030459,97.6875,243.0444,134.3320,225.8160,0,U,60536,999,9927,.60895486E-3,.10139E-3,0
LEMUR-2-AHMED-ASRAR,2024-149DN,2026-06-09T05:22:54.235776,15.12533841,.00026197,97.7000,245.1488,62.7817,297.3680,0,U,60576,999,9936,.59160982E-3,.1025E-3,0
LEMUR-2-LLOYD,2024-149DP,2026-06-09T05:14:34.835136,15.09086279,.00045686,97.6746,241.3443,158.0530,202.0895,0,U,60577,999,9919,.55238536E-3,.8695E-4,0
LEMUR-2-SQUIRRELCOMM,2024-149DQ,2026-06-09T05:19:21.563040,15.07063859,.0006956,97.6716,241.1591,83.9423,276.2596,0,U,60578,999,9920,.35767014E-3,.5305E-4,0
LEMUR-2-SIERRINI,2024-149DR,2026-06-09T06:29:34.086624,15.10778236,.00051945,97.6835,242.8290,188.4443,171.6699,0,U,60579,999,9926,.52889607E-3,.872E-4,0
LEMUR-2-WILSON,2025-009CP,2026-06-09T04:44:59.200224,14.95131657,.00045128,97.7024,238.8031,73.9340,286.2377,0,U,62694,999,7616,.14186936E-3,.15E-4,0
LEMUR-2-STAR-FOX,2025-009CR,2026-06-08T23:13:21.091872,15.02380516,.00029806,97.6944,241.6361,133.8913,226.2558,0,U,62696,999,7632,.54625735E-3,.7174E-4,0
